{
  "type": "FeatureCollection",
  "features": [
    {
      "type": "Feature",
      "properties": {
        "norad_id": 32376,
        "name": "COSMO-SKYMED 2",
        "group": "resource",
        "lat": -38.51668793525134,
        "lon": -171.09423775819374,
        "alt_km": 629.4399300513342,
        "timestamp": "2025-12-27T11:23:19.533980+00:00",
        "meta_object_name": "COSMO-SKYMED 2",
        "meta_object_id": "2007-059A",
        "meta_epoch": "2025-12-27T03:27:46.610208",
        "meta_mean_motion": 14.82160949,
        "meta_eccentricity": 0.0001291,
        "meta_inclination": 97.8807,
        "meta_ra_of_asc_node": 182.2513,
        "meta_arg_of_pericenter": 82.9989,
        "meta_mean_anomaly": 277.137,
        "meta_ephemeris_type": 0,
        "meta_classification_type": "U",
        "meta_norad_cat_id": 32376,
        "meta_element_set_no": 999,
        "meta_rev_at_epoch": 97651,
        "meta_bstar": 9.3297e-05,
        "meta_mean_motion_dot": 6.91e-06,
        "meta_mean_motion_ddot": 0,
        "tle_line1": "1 32376U 07059A   25361.14428947  .00000691  00000+0  93297-4 0  9997",
        "tle_line2": "2 32376  97.8807 182.2513 0001291  82.9989 277.1370 14.82160949976511"
      },
      "geometry": {
        "type": "Point",
        "coordinates": [
          -171.09423775819374,
          -38.51668793525134
        ]
      }
    },
    {
      "type": "Feature",
      "properties": {
        "norad_id": 32382,
        "name": "RADARSAT-2",
        "group": "resource",
        "lat": 26.92471134729053,
        "lon": 1.4528374495225382,
        "alt_km": 790.2503633962806,
        "timestamp": "2025-12-27T11:23:19.533990+00:00",
        "meta_object_name": "RADARSAT-2",
        "meta_object_id": "2007-061A",
        "meta_epoch": "2025-12-27T04:32:40.307424",
        "meta_mean_motion": 14.29986153,
        "meta_eccentricity": 0.000115,
        "meta_inclination": 98.5801,
        "meta_ra_of_asc_node": 5.5694,
        "meta_arg_of_pericenter": 85.7687,
        "meta_mean_anomaly": 274.3626,
        "meta_ephemeris_type": 0,
        "meta_classification_type": "U",
        "meta_norad_cat_id": 32382,
        "meta_element_set_no": 999,
        "meta_rev_at_epoch": 94137,
        "meta_bstar": 0.00011438,
        "meta_mean_motion_dot": 2.51e-06,
        "meta_mean_motion_ddot": 0,
        "tle_line1": "1 32382U 07061A   25361.18935541  .00000251  00000+0  11438-3 0  9992",
        "tle_line2": "2 32382  98.5801   5.5694 0001150  85.7687 274.3626 14.29986153941370"
      },
      "geometry": {
        "type": "Point",
        "coordinates": [
          1.4528374495225382,
          26.92471134729053
        ]
      }
    },
    {
      "type": "Feature",
      "properties": {
        "norad_id": 32783,
        "name": "CARTOSAT-2A",
        "group": "resource",
        "lat": -67.83760513309753,
        "lon": 70.47768250429034,
        "alt_km": 632.9949000386287,
        "timestamp": "2025-12-27T11:23:19.534001+00:00",
        "meta_object_name": "CARTOSAT-2A",
        "meta_object_id": "2008-021A",
        "meta_epoch": "2025-12-27T05:12:19.912032",
        "meta_mean_motion": 14.78957064,
        "meta_eccentricity": 0.0010728,
        "meta_inclination": 97.7911,
        "meta_ra_of_asc_node": 50.5866,
        "meta_arg_of_pericenter": 315.4399,
        "meta_mean_anomaly": 44.595,
        "meta_ephemeris_type": 0,
        "meta_classification_type": "U",
        "meta_norad_cat_id": 32783,
        "meta_element_set_no": 999,
        "meta_rev_at_epoch": 95338,
        "meta_bstar": 0.00011344,
        "meta_mean_motion_dot": 7.87e-06,
        "meta_mean_motion_ddot": 0,
        "tle_line1": "1 32783U 08021A   25361.21689713  .00000787  00000+0  11344-3 0  9995",
        "tle_line2": "2 32783  97.7911  50.5866 0010728 315.4399  44.5950 14.78957064953387"
      },
      "geometry": {
        "type": "Point",
        "coordinates": [
          70.47768250429034,
          -67.83760513309753
        ]
      }
    },
    {
      "type": "Feature",
      "properties": {
        "norad_id": 33320,
        "name": "HUANJING 1A (HJ-1A)",
        "group": "resource",
        "lat": 32.581757719444305,
        "lon": -15.772489200164626,
        "alt_km": 607.2842443723548,
        "timestamp": "2025-12-27T11:23:19.534011+00:00",
        "meta_object_name": "HUANJING 1A (HJ-1A)",
        "meta_object_id": "2008-041A",
        "meta_epoch": "2025-12-27T04:45:57.437280",
        "meta_mean_motion": 14.83441358,
        "meta_eccentricity": 0.0018997,
        "meta_inclination": 97.6555,
        "meta_ra_of_asc_node": 348.8942,
        "meta_arg_of_pericenter": 348.1535,
        "meta_mean_anomaly": 11.9229,
        "meta_ephemeris_type": 0,
        "meta_classification_type": "U",
        "meta_norad_cat_id": 33320,
        "meta_element_set_no": 999,
        "meta_rev_at_epoch": 93290,
        "meta_bstar": 0.00029346,
        "meta_mean_motion_dot": 2.366e-05,
        "meta_mean_motion_ddot": 0,
        "tle_line1": "1 33320U 08041A   25361.19858145  .00002366  00000+0  29346-3 0  9995",
        "tle_line2": "2 33320  97.6555 348.8942 0018997 348.1535  11.9229 14.83441358932909"
      },
      "geometry": {
        "type": "Point",
        "coordinates": [
          -15.772489200164626,
          32.581757719444305
        ]
      }
    },
    {
      "type": "Feature",
      "properties": {
        "norad_id": 33321,
        "name": "HUANJING 1B (HJ-1B)",
        "group": "resource",
        "lat": -42.90049431101298,
        "lon": 165.65012408961482,
        "alt_km": 652.5002612817361,
        "timestamp": "2025-12-27T11:23:19.534031+00:00",
        "meta_object_name": "HUANJING 1B (HJ-1B)",
        "meta_object_id": "2008-041B",
        "meta_epoch": "2025-12-27T05:31:36.687936",
        "meta_mean_motion": 14.82861886,
        "meta_eccentricity": 0.0037639,
        "meta_inclination": 97.6413,
        "meta_ra_of_asc_node": 352.5834,
        "meta_arg_of_pericenter": 29.8017,
        "meta_mean_anomaly": 330.533,
        "meta_ephemeris_type": 0,
        "meta_classification_type": "U",
        "meta_norad_cat_id": 33321,
        "meta_element_set_no": 999,
        "meta_rev_at_epoch": 93292,
        "meta_bstar": 0.00023484,
        "meta_mean_motion_dot": 1.874e-05,
        "meta_mean_motion_ddot": 0,
        "tle_line1": "1 33321U 08041B   25361.23028574  .00001874  00000+0  23484-3 0  9996",
        "tle_line2": "2 33321  97.6413 352.5834 0037639  29.8017 330.5330 14.82861886932923"
      },
      "geometry": {
        "type": "Point",
        "coordinates": [
          165.65012408961482,
          -42.90049431101298
        ]
      }
    },
    {
      "type": "Feature",
      "properties": {
        "norad_id": 33331,
        "name": "GEOEYE 1",
        "group": "resource",
        "lat": -29.03062714721402,
        "lon": 77.11510032972669,
        "alt_km": 684.5711591390036,
        "timestamp": "2025-12-27T11:23:19.534053+00:00",
        "meta_object_name": "GEOEYE 1",
        "meta_object_id": "2008-042A",
        "meta_epoch": "2025-12-27T03:19:29.807616",
        "meta_mean_motion": 14.64719886,
        "meta_eccentricity": 0.0003099,
        "meta_inclination": 98.1235,
        "meta_ra_of_asc_node": 72.2366,
        "meta_arg_of_pericenter": 222.9564,
        "meta_mean_anomaly": 137.1397,
        "meta_ephemeris_type": 0,
        "meta_classification_type": "U",
        "meta_norad_cat_id": 33331,
        "meta_element_set_no": 999,
        "meta_rev_at_epoch": 92496,
        "meta_bstar": 0.00013885,
        "meta_mean_motion_dot": 6.92e-06,
        "meta_mean_motion_ddot": 0,
        "tle_line1": "1 33331U 08042A   25361.13853944  .00000692  00000+0  13885-3 0  9995",
        "tle_line2": "2 33331  98.1235  72.2366 0003099 222.9564 137.1397 14.64719886924965"
      },
      "geometry": {
        "type": "Point",
        "coordinates": [
          77.11510032972669,
          -29.03062714721402
        ]
      }
    },
    {
      "type": "Feature",
      "properties": {
        "norad_id": 33396,
        "name": "THEOS",
        "group": "resource",
        "lat": -16.024419400338637,
        "lon": 61.61417807830968,
        "alt_km": 830.0435558904319,
        "timestamp": "2025-12-27T11:23:19.534066+00:00",
        "meta_object_name": "THEOS",
        "meta_object_id": "2008-049A",
        "meta_epoch": "2025-12-27T04:42:03.600000",
        "meta_mean_motion": 14.20099356,
        "meta_eccentricity": 0.000121,
        "meta_inclination": 98.5843,
        "meta_ra_of_asc_node": 58.8574,
        "meta_arg_of_pericenter": 93.1173,
        "meta_mean_anomaly": 267.0142,
        "meta_ephemeris_type": 0,
        "meta_classification_type": "U",
        "meta_norad_cat_id": 33396,
        "meta_element_set_no": 999,
        "meta_rev_at_epoch": 89355,
        "meta_bstar": -2.1022e-05,
        "meta_mean_motion_dot": -8.7e-07,
        "meta_mean_motion_ddot": 0,
        "tle_line1": "1 33396U 08049A   25361.19587500 -.00000087  00000+0 -21022-4 0  9994",
        "tle_line2": "2 33396  98.5843  58.8574 0001210  93.1173 267.0142 14.20099356893559"
      },
      "geometry": {
        "type": "Point",
        "coordinates": [
          61.61417807830968,
          -16.024419400338637
        ]
      }
    }
  ]
}